STARLINK-33547          
1 62283U 24237S   26068.39942571  .00035780  00000+0  13031-2 0  9993
2 62283  42.9953 207.0838 0000982 170.0613 190.0259 15.27589555 71275
HERMES-3                
1 63835U 25052BR  26068.93751242  .00020316  00000+0  69958-3 0  9995
2 63835  97.3987 324.6131 0007993 112.9583 247.2502 15.30039785 54863
